[{"OBJECT_NAME":"SITRO-AIS 14","OBJECT_ID":"2024-199T","EPOCH":"2026-03-09T22:54:28.226304","MEAN_MOTION":14.97122201,"ECCENTRICITY":0.00071847,"INCLINATION":97.3313,"RA_OF_ASC_NODE":274.5243,"ARG_OF_PERICENTER":48.7211,"MEAN_ANOMALY":311.463,"EPHEMERIS_TYPE":0,"CLASSIFICATION_TYPE":"U","NORAD_CAT_ID":61752,"ELEMENT_SET_NO":999,"REV_AT_EPOCH":12027,"BSTAR":0.00031190269,"MEAN_MOTION_DOT":3.549e-5,"MEAN_MOTION_DDOT":0},{"OBJECT_NAME":"STARLINK-32900","OBJECT_ID":"2025-037S","EPOCH":"2026-03-09T21:27:27.753408","MEAN_MOTION":14.98334642,"ECCENTRICITY":0.00024557,"INCLINATION":70.0044,"RA_OF_ASC_NODE":353.9042,"ARG_OF_PERICENTER":261.8382,"MEAN_ANOMALY":98.2498,"EPHEMERIS_TYPE":0,"CLASSIFICATION_TYPE":"U","NORAD_CAT_ID":63093,"ELEMENT_SET_NO":999,"REV_AT_EPOCH":5849,"BSTAR":0.00067469364,"MEAN_MOTION_DOT":7.967e-5,"MEAN_MOTION_DDOT":0}]
